H1 CPF 01  gfz 2021 04 10 00  6001 terrasarx 
H2 0702601  6201 31698    2021 04 10 00 59 42 2021 04 15 00 00 42   120 1 1  0 0 0
H9
10 0 59317   9342.000000  0   -3388008.046  -4955306.426  -3388113.830
10 0 59317   9462.000000  0   -3764590.657  -5167352.635  -2574784.033
10 0 59317   9582.000000  0   -4078398.984  -5283253.988  -1716239.066
10 0 59317   9702.000000  0   -4322206.092  -5302067.824   -827529.035
10 0 59317   9822.000000  0   -4490008.931  -5224673.355     75735.767
10 0 59317   9942.000000  0   -4577171.633  -5053740.495    977665.432
10 0 59317  10062.000000  0   -4580542.499  -4793661.956   1862378.996
10 0 59317  10182.000000  0   -4498540.476  -4450449.401   2714293.621
10 0 59317  10302.000000  0   -4331209.586  -4031597.506   3518407.075
10 0 59317  10422.000000  0   -4080240.494  -3545919.689   4260568.358
10 0 59317  10542.000000  0   -3748957.760  -3003358.856   4927731.065
10 0 59317  10662.000000  0   -3342273.882  -2414778.729   5508182.256
10 0 59317  10782.000000  0   -2866612.885  -1791742.800   5991745.158
10 0 59317  10902.000000  0   -2329804.496  -1146284.346   6369954.179
10 0 59317  11022.000000  0   -1740950.538   -490670.431   6636198.690
10 0 59317  11142.000000  0   -1110265.515    162833.228   6785831.134
10 0 59317  11262.000000  0    -448898.318    802190.019   6816241.581
10 0 59317  11382.000000  0     231264.481   1415813.272   6726900.930
10 0 59317  11502.000000  0     917811.771   1992776.036   6519369.839
10 0 59317  11622.000000  0    1598033.868   2523005.692   6197272.474
10 0 59317  11742.000000  0    2259156.741   2997459.838   5766237.138
10 0 59317  11862.000000  0    2888582.138   3408282.937   5233804.774
10 0 59317  11982.000000  0    3474130.595   3748940.646   4609303.063
10 0 59317  12102.000000  0    4004279.477   4014326.808   3903686.838
10 0 59317  12222.000000  0    4468393.711   4200844.690   3129352.665
10 0 59317  12342.000000  0    4856946.910   4306458.189   2299920.114
10 0 59317  12462.000000  0    5161720.112   4330710.285   1429990.118
10 0 59317  12582.000000  0    5375979.617   4274710.059    534883.176
10 0 59317  12702.000000  0    5494625.727   4141086.945   -369638.747
10 0 59317  12822.000000  0    5514308.077   3933913.625  -1267658.979
10 0 59317  12942.000000  0    5433506.285   3658599.732  -2143394.489
10 0 59317  13062.000000  0    5252573.281   3321758.842  -2981480.220
10 0 59317  13182.000000  0    4973741.148   2931053.684  -3767242.649
10 0 59317  13302.000000  0    4601090.188   2495023.774  -4486958.706
10 0 59317  13422.000000  0    4140480.676   2022897.516  -5128093.781
10 0 59317  13542.000000  0    3599451.616   1524395.872  -5679513.096
10 0 59317  13662.000000  0    2987089.206   1009532.639  -6131666.108
10 0 59317  13782.000000  0    2313867.282    488414.686  -6476741.322
10 0 59317  13902.000000  0    1591464.599    -28953.388  -6708789.006
10 0 59317  14022.000000  0     832563.226   -532857.119  -6823814.362
10 0 59317  14142.000000  0      50627.340  -1014050.770  -6819839.439
10 0 59317  14262.000000  0    -740330.702  -1463922.165  -6696931.576
10 0 59317  14382.000000  0   -1525994.837  -1874642.472  -6457203.062
10 0 59317  14502.000000  0   -2291998.867  -2239300.264  -6104779.120
10 0 59317  14622.000000  0   -3024183.406  -2552016.458  -5645733.831
10 0 59317  14742.000000  0   -3708854.038  -2808039.835  -5087996.997
10 0 59317  14862.000000  0   -4333038.838  -3003821.942  -4441229.122
10 0 59317  14982.000000  0   -4884737.575  -3137068.153  -3716664.311
10 0 59317  15102.000000  0   -5353158.543  -3206764.189  -2926924.356
10 0 59317  15222.000000  0   -5728938.183  -3213177.339  -2085804.862
10 0 59317  15342.000000  0   -6004337.010  -3157831.355  -1208036.283
10 0 59317  15462.000000  0   -6173407.102  -3043455.545   -309024.616
10 0 59317  15582.000000  0   -6232126.279  -2873908.384    595423.791
10 0 59317  15702.000000  0   -6178495.596  -2654077.842   1489387.819
10 0 59317  15822.000000  0   -6012595.077  -2389760.042   2357122.150
10 0 59317  15942.000000  0   -5736596.203  -2087519.250   3183342.966
10 0 59317  16062.000000  0   -5354734.313  -1754534.142   3953504.666
10 0 59317  16182.000000  0   -4873236.827  -1398432.566   4654062.257
10 0 59317  16302.000000  0   -4300212.589  -1027120.275   5272709.781
10 0 59317  16422.000000  0   -3645507.693   -648608.911   5798594.595
10 0 59317  16542.000000  0   -2920528.432   -270845.135   6222505.351
10 0 59317  16662.000000  0   -2138034.426     98454.953   6537028.332
10 0 59317  16782.000000  0   -1311907.914    451960.847   6736670.050
10 0 59317  16902.000000  0    -456904.841    782870.872   6817947.196
10 0 59317  17022.000000  0     411609.039   1085041.743   6779443.169
10 0 59317  17142.000000  0    1277933.296   1353102.034   6621831.149
10 0 59317  17262.000000  0    2126315.716   1582548.027   6347862.955
10 0 59317  17382.000000  0    2941237.789   1769819.457   5962324.003
10 0 59317  17502.000000  0    3707699.993   1912354.940   5471955.563
10 0 59317  17622.000000  0    4411500.991   2008625.768   4885342.168
10 0 59317  17742.000000  0    5039504.939   2058148.539   4212768.298
10 0 59317  17862.000000  0    5579896.209   2061475.982   3466044.069
10 0 59317  17982.000000  0    6022411.071   2020163.856   2658297.121
10 0 59317  18102.000000  0    6358540.220   1936717.067   1803742.315
10 0 59317  18222.000000  0    6581702.114   1814514.917    917427.607
10 0 59317  18342.000000  0    6687376.917   1657716.564     14961.996
10 0 59317  18462.000000  0    6673200.528   1471151.092   -887767.900
10 0 59317  18582.000000  0    6539013.743   1260192.847  -1774886.667
10 0 59317  18702.000000  0    6286868.792   1030625.226  -2630816.027
10 0 59317  18822.000000  0    5920991.136    788497.823  -3440555.191
10 0 59317  18942.000000  0    5447697.600    539981.001  -4189946.916
10 0 59317  19062.000000  0    4875274.292    291220.508  -4865924.620
10 0 59317  19182.000000  0    4213818.551     48196.002  -5456734.624
10 0 59317  19302.000000  0    3475050.615   -183412.600  -5952132.004
10 0 59317  19422.000000  0    2672098.185   -398348.840  -6343549.052
10 0 59317  19542.000000  0    1819257.502   -591891.326  -6624231.825
10 0 59317  19662.000000  0     931739.019   -759951.164  -6789345.346
10 0 59317  19782.000000  0      25398.596   -899153.757  -6836049.216
10 0 59317  19902.000000  0    -883540.828  -1006902.928  -6763539.980
10 0 59317  20022.000000  0   -1778772.299  -1081427.871  -6573063.811
10 0 59317  20142.000000  0   -2644191.364  -1121811.564  -6267897.251
10 0 59317  20262.000000  0   -3464178.938  -1128000.553  -5853295.713
10 0 59317  20382.000000  0   -4223879.281  -1100796.393  -5336414.021
10 0 59317  20502.000000  0   -4909470.892  -1041828.196  -4726194.343
10 0 59317  20622.000000  0   -5508422.178   -953506.823  -4033222.608
10 0 59317  20742.000000  0   -6009728.726   -838961.561  -3269555.418
10 0 59317  20862.000000  0   -6404127.150   -701959.721  -2448517.698
10 0 59317  20982.000000  0   -6684278.622   -546810.867  -1584474.003
10 0 59317  21102.000000  0   -6844918.750   -378258.417   -692577.611
10 0 59317  21222.000000  0   -6882967.949   -201358.980    211500.606
10 0 59317  21342.000000  0   -6797596.653    -21353.776   1111853.999
10 0 59317  21462.000000  0   -6590247.870    156463.818   1992627.890
10 0 59317  21582.000000  0   -6264613.265    326881.910   2838308.202
10 0 59317  21702.000000  0   -5826563.463    484901.760   3634003.443
10 0 59317  21822.000000  0   -5284034.125    625863.853   4365713.267
10 0 59317  21942.000000  0   -4646872.343    745564.801   5020577.772
10 0 59317  22062.000000  0   -3926647.340    840362.524   5587102.827
10 0 59317  22182.000000  0   -3136431.492    907267.555   6055358.898
10 0 59317  22302.000000  0   -2290554.984    944017.900   6417150.997
10 0 59317  22422.000000  0   -1404339.371    949137.095   6666156.932
10 0 59317  22542.000000  0    -493815.484    921973.908   6798030.687
10 0 59317  22662.000000  0     424567.028    862722.636   6810472.505
10 0 59317  22782.000000  0    1334235.761    772424.064   6703266.119
10 0 59317  22902.000000  0    2218793.222    652947.489   6478282.402
10 0 59317  23022.000000  0    3062311.407    506953.514   6139449.340
10 0 59317  23142.000000  0    3849620.102    337838.141   5692688.422
10 0 59317  23262.000000  0    4566582.882    149659.116   5145816.634
10 0 59317  23382.000000  0    5200356.048    -52954.592   4508415.786
10 0 59317  23502.000000  0    5739626.579   -264908.304   3791670.331
10 0 59317  23622.000000  0    6174824.435   -480759.181   3008174.694
10 0 59317  23742.000000  0    6498303.436   -694844.192   2171711.917
10 0 59317  23862.000000  0    6704483.798   -901415.595   1297007.682
10 0 59317  23982.000000  0    6789955.392  -1094780.670    399466.837
10 0 59317  24102.000000  0    6753539.925  -1269441.777   -505105.611
10 0 59317  24222.000000  0    6596305.573  -1420233.560  -1400792.855
10 0 59317  24342.000000  0    6321536.557  -1542452.983  -2271854.714
10 0 59317  24462.000000  0    5934658.003  -1631979.454  -3103011.571
10 0 59317  24582.000000  0    5443119.069  -1685382.012  -3879716.224
10 0 59317  24702.000000  0    4856238.376  -1700010.568  -4588408.939
10 0 59317  24822.000000  0    4185016.283  -1674069.576  -5216751.270
10 0 59317  24942.000000  0    3441917.959  -1606673.512  -5753834.705
10 0 59317  25062.000000  0    2640633.365  -1497882.314  -6190359.980
10 0 59317  25182.000000  0    1795821.310  -1348716.005  -6518787.020
10 0 59317  25302.000000  0     922840.010  -1161148.983  -6733454.937
10 0 59317  25422.000000  0      37470.068   -938085.269  -6830669.286
10 0 59317  25542.000000  0    -844365.776   -683313.958  -6808758.450
10 0 59317  25662.000000  0   -1706882.166   -401446.186  -6668099.389
10 0 59317  25782.000000  0   -2534707.738    -97833.450  -6411111.387
99
